<?xml version="1.0" encoding="UTF-8"?>
<ndm xmlns:xsi="http://www.w3.org/2001/XMLSchema-instance" xsi:noNamespaceSchemaLocation="https://sanaregistry.org/r/ndmxml_unqualified/ndmxml-2.0.0-master-2.0.xsd">
<omm id="CCSDS_OMM_VERS" version="2.0">
<header><CREATION_DATE/><ORIGINATOR/></header><body><segment><metadata><OBJECT_NAME>ONEWEB-0512</OBJECT_NAME><OBJECT_ID>2022-138T</OBJECT_ID><CENTER_NAME>EARTH</CENTER_NAME><REF_FRAME>TEME</REF_FRAME><TIME_SYSTEM>UTC</TIME_SYSTEM><MEAN_ELEMENT_THEORY>SGP4</MEAN_ELEMENT_THEORY></metadata><data><meanElements><EPOCH>2025-06-13T14:40:12.766368</EPOCH><MEAN_MOTION>13.19726175</MEAN_MOTION><ECCENTRICITY>.0001596</ECCENTRICITY><INCLINATION>87.9225</INCLINATION><RA_OF_ASC_NODE>18.2631</RA_OF_ASC_NODE><ARG_OF_PERICENTER>98.3265</ARG_OF_PERICENTER><MEAN_ANOMALY>261.8049</MEAN_ANOMALY></meanElements><tleParameters><EPHEMERIS_TYPE>0</EPHEMERIS_TYPE><CLASSIFICATION_TYPE>U</CLASSIFICATION_TYPE><NORAD_CAT_ID>54130</NORAD_CAT_ID><ELEMENT_SET_NO>999</ELEMENT_SET_NO><REV_AT_EPOCH>12819</REV_AT_EPOCH><BSTAR>.11918E-3</BSTAR><MEAN_MOTION_DOT>.61E-6</MEAN_MOTION_DOT><MEAN_MOTION_DDOT>0</MEAN_MOTION_DDOT></tleParameters></data></segment></body></omm>
<omm id="CCSDS_OMM_VERS" version="2.0">
<header><CREATION_DATE/><ORIGINATOR/></header><body><segment><metadata><OBJECT_NAME>ONEWEB-0513</OBJECT_NAME><OBJECT_ID>2022-138U</OBJECT_ID><CENTER_NAME>EARTH</CENTER_NAME><REF_FRAME>TEME</REF_FRAME><TIME_SYSTEM>UTC</TIME_SYSTEM><MEAN_ELEMENT_THEORY>SGP4</MEAN_ELEMENT_THEORY></metadata><data><meanElements><EPOCH>2025-06-13T13:03:56.592864</EPOCH><MEAN_MOTION>13.20261975</MEAN_MOTION><ECCENTRICITY>.0001541</ECCENTRICITY><INCLINATION>87.9221</INCLINATION><RA_OF_ASC_NODE>18.2445</RA_OF_ASC_NODE><ARG_OF_PERICENTER>99.1490</ARG_OF_PERICENTER><MEAN_ANOMALY>260.9817</MEAN_ANOMALY></meanElements><tleParameters><EPHEMERIS_TYPE>0</EPHEMERIS_TYPE><CLASSIFICATION_TYPE>U</CLASSIFICATION_TYPE><NORAD_CAT_ID>54131</NORAD_CAT_ID><ELEMENT_SET_NO>999</ELEMENT_SET_NO><REV_AT_EPOCH>12807</REV_AT_EPOCH><BSTAR>-.46935E-4</BSTAR><MEAN_MOTION_DOT>-.6E-7</MEAN_MOTION_DOT><MEAN_MOTION_DDOT>0</MEAN_MOTION_DDOT></tleParameters></data></segment></body></omm>
<omm id="CCSDS_OMM_VERS" version="2.0">
<header><CREATION_DATE/><ORIGINATOR/></header><body><segment><metadata><OBJECT_NAME>ONEWEB-0514</OBJECT_NAME><OBJECT_ID>2022-138V</OBJECT_ID><CENTER_NAME>EARTH</CENTER_NAME><REF_FRAME>TEME</REF_FRAME><TIME_SYSTEM>UTC</TIME_SYSTEM><MEAN_ELEMENT_THEORY>SGP4</MEAN_ELEMENT_THEORY></metadata><data><meanElements><EPOCH>2025-06-13T15:02:57.502752</EPOCH><MEAN_MOTION>13.19725962</MEAN_MOTION><ECCENTRICITY>.0001788</ECCENTRICITY><INCLINATION>87.9216</INCLINATION><RA_OF_ASC_NODE>18.2272</RA_OF_ASC_NODE><ARG_OF_PERICENTER>84.5940</ARG_OF_PERICENTER><MEAN_ANOMALY>275.5397</MEAN_ANOMALY></meanElements><tleParameters><EPHEMERIS_TYPE>0</EPHEMERIS_TYPE><CLASSIFICATION_TYPE>U</CLASSIFICATION_TYPE><NORAD_CAT_ID>54132</NORAD_CAT_ID><ELEMENT_SET_NO>999</ELEMENT_SET_NO><REV_AT_EPOCH>12821</REV_AT_EPOCH><BSTAR>.12209E-3</BSTAR><MEAN_MOTION_DOT>.62E-6</MEAN_MOTION_DOT><MEAN_MOTION_DDOT>0</MEAN_MOTION_DDOT></tleParameters></data></segment></body></omm>
<omm id="CCSDS_OMM_VERS" version="2.0">
<header><CREATION_DATE/><ORIGINATOR/></header><body><segment><metadata><OBJECT_NAME>ONEWEB-0515</OBJECT_NAME><OBJECT_ID>2022-138W</OBJECT_ID><CENTER_NAME>EARTH</CENTER_NAME><REF_FRAME>TEME</REF_FRAME><TIME_SYSTEM>UTC</TIME_SYSTEM><MEAN_ELEMENT_THEORY>SGP4</MEAN_ELEMENT_THEORY></metadata><data><meanElements><EPOCH>2025-06-13T13:29:23.241120</EPOCH><MEAN_MOTION>13.20772168</MEAN_MOTION><ECCENTRICITY>.0002699</ECCENTRICITY><INCLINATION>87.9259</INCLINATION><RA_OF_ASC_NODE>347.8293</RA_OF_ASC_NODE><ARG_OF_PERICENTER>81.3621</ARG_OF_PERICENTER><MEAN_ANOMALY>278.7818</MEAN_ANOMALY></meanElements><tleParameters><EPHEMERIS_TYPE>0</EPHEMERIS_TYPE><CLASSIFICATION_TYPE>U</CLASSIFICATION_TYPE><NORAD_CAT_ID>54133</NORAD_CAT_ID><ELEMENT_SET_NO>999</ELEMENT_SET_NO><REV_AT_EPOCH>13064</REV_AT_EPOCH><BSTAR>-.31144E-3</BSTAR><MEAN_MOTION_DOT>-.114E-5</MEAN_MOTION_DOT><MEAN_MOTION_DDOT>0</MEAN_MOTION_DDOT></tleParameters></data></segment></body></omm>
<omm id="CCSDS_OMM_VERS" version="2.0">
<header><CREATION_DATE/><ORIGINATOR/></header><body><segment><metadata><OBJECT_NAME>ONEWEB-0516</OBJECT_NAME><OBJECT_ID>2022-138X</OBJECT_ID><CENTER_NAME>EARTH</CENTER_NAME><REF_FRAME>TEME</REF_FRAME><TIME_SYSTEM>UTC</TIME_SYSTEM><MEAN_ELEMENT_THEORY>SGP4</MEAN_ELEMENT_THEORY></metadata><data><meanElements><EPOCH>2025-06-13T14:26:34.283616</EPOCH><MEAN_MOTION>13.19726482</MEAN_MOTION><ECCENTRICITY>.0001879</ECCENTRICITY><INCLINATION>87.9226</INCLINATION><RA_OF_ASC_NODE>18.2684</RA_OF_ASC_NODE><ARG_OF_PERICENTER>90.2404</ARG_OF_PERICENTER><MEAN_ANOMALY>269.8944</MEAN_ANOMALY></meanElements><tleParameters><EPHEMERIS_TYPE>0</EPHEMERIS_TYPE><CLASSIFICATION_TYPE>U</CLASSIFICATION_TYPE><NORAD_CAT_ID>54134</NORAD_CAT_ID><ELEMENT_SET_NO>999</ELEMENT_SET_NO><REV_AT_EPOCH>12821</REV_AT_EPOCH><BSTAR>.13986E-3</BSTAR><MEAN_MOTION_DOT>.69E-6</MEAN_MOTION_DOT><MEAN_MOTION_DDOT>0</MEAN_MOTION_DDOT></tleParameters></data></segment></body></omm>
<omm id="CCSDS_OMM_VERS" version="2.0">
<header><CREATION_DATE/><ORIGINATOR/></header><body><segment><metadata><OBJECT_NAME>ONEWEB-0517</OBJECT_NAME><OBJECT_ID>2022-138Y</OBJECT_ID><CENTER_NAME>EARTH</CENTER_NAME><REF_FRAME>TEME</REF_FRAME><TIME_SYSTEM>UTC</TIME_SYSTEM><MEAN_ELEMENT_THEORY>SGP4</MEAN_ELEMENT_THEORY></metadata><data><meanElements><EPOCH>2025-06-13T13:56:59.965440</EPOCH><MEAN_MOTION>13.19726318</MEAN_MOTION><ECCENTRICITY>.0001512</ECCENTRICITY><INCLINATION>87.9216</INCLINATION><RA_OF_ASC_NODE>18.2318</RA_OF_ASC_NODE><ARG_OF_PERICENTER>79.1899</ARG_OF_PERICENTER><MEAN_ANOMALY>280.9403</MEAN_ANOMALY></meanElements><tleParameters><EPHEMERIS_TYPE>0</EPHEMERIS_TYPE><CLASSIFICATION_TYPE>U</CLASSIFICATION_TYPE><NORAD_CAT_ID>54135</NORAD_CAT_ID><ELEMENT_SET_NO>999</ELEMENT_SET_NO><REV_AT_EPOCH>12821</REV_AT_EPOCH><BSTAR>-.70045E-4</BSTAR><MEAN_MOTION_DOT>-.15E-6</MEAN_MOTION_DOT><MEAN_MOTION_DDOT>0</MEAN_MOTION_DDOT></tleParameters></data></segment></body></omm>
<omm id="CCSDS_OMM_VERS" version="2.0">
<header><CREATION_DATE/><ORIGINATOR/></header><body><segment><metadata><OBJECT_NAME>ONEWEB-0518</OBJECT_NAME><OBJECT_ID>2022-138Z</OBJECT_ID><CENTER_NAME>EARTH</CENTER_NAME><REF_FRAME>TEME</REF_FRAME><TIME_SYSTEM>UTC</TIME_SYSTEM><MEAN_ELEMENT_THEORY>SGP4</MEAN_ELEMENT_THEORY></metadata><data><meanElements><EPOCH>2025-06-13T14:24:17.666208</EPOCH><MEAN_MOTION>13.19726155</MEAN_MOTION><ECCENTRICITY>.0001778</ECCENTRICITY><INCLINATION>87.9226</INCLINATION><RA_OF_ASC_NODE>18.2640</RA_OF_ASC_NODE><ARG_OF_PERICENTER>91.5623</ARG_OF_PERICENTER><MEAN_ANOMALY>268.5713</MEAN_ANOMALY></meanElements><tleParameters><EPHEMERIS_TYPE>0</EPHEMERIS_TYPE><CLASSIFICATION_TYPE>U</CLASSIFICATION_TYPE><NORAD_CAT_ID>54136</NORAD_CAT_ID><ELEMENT_SET_NO>999</ELEMENT_SET_NO><REV_AT_EPOCH>12821</REV_AT_EPOCH><BSTAR>.10674E-3</BSTAR><MEAN_MOTION_DOT>.56E-6</MEAN_MOTION_DOT><MEAN_MOTION_DDOT>0</MEAN_MOTION_DDOT></tleParameters></data></segment></body></omm>
<omm id="CCSDS_OMM_VERS" version="2.0">
<header><CREATION_DATE/><ORIGINATOR/></header><body><segment><metadata><OBJECT_NAME>ONEWEB-0519</OBJECT_NAME><OBJECT_ID>2022-138AA</OBJECT_ID><CENTER_NAME>EARTH</CENTER_NAME><REF_FRAME>TEME</REF_FRAME><TIME_SYSTEM>UTC</TIME_SYSTEM><MEAN_ELEMENT_THEORY>SGP4</MEAN_ELEMENT_THEORY></metadata><data><meanElements><EPOCH>2025-06-13T15:00:40.886208</EPOCH><MEAN_MOTION>13.19726124</MEAN_MOTION><ECCENTRICITY>.0001564</ECCENTRICITY><INCLINATION>87.9216</INCLINATION><RA_OF_ASC_NODE>18.2157</RA_OF_ASC_NODE><ARG_OF_PERICENTER>82.6166</ARG_OF_PERICENTER><MEAN_ANOMALY>277.5144</MEAN_ANOMALY></meanElements><tleParameters><EPHEMERIS_TYPE>0</EPHEMERIS_TYPE><CLASSIFICATION_TYPE>U</CLASSIFICATION_TYPE><NORAD_CAT_ID>54137</NORAD_CAT_ID><ELEMENT_SET_NO>999</ELEMENT_SET_NO><REV_AT_EPOCH>12822</REV_AT_EPOCH><BSTAR>.9444E-4</BSTAR><MEAN_MOTION_DOT>.51E-6</MEAN_MOTION_DOT><MEAN_MOTION_DDOT>0</MEAN_MOTION_DDOT></tleParameters></data></segment></body></omm>

</ndm>
