ONEWEB-0512             
1 54130U 22138T   25164.61125887  .00000061  00000+0  11918-3 0  9994
2 54130  87.9225  18.2631 0001596  98.3265 261.8049 13.19726175128196
ONEWEB-0513             
1 54131U 22138U   25164.54440501 -.00000006  00000+0 -46935-4 0  9999
2 54131  87.9221  18.2445 0001541  99.1490 260.9817 13.20261975128079
ONEWEB-0514             
1 54132U 22138V   25164.62705443  .00000062  00000+0  12209-3 0  9994
2 54132  87.9216  18.2272 0001788  84.5940 275.5397 13.19725962128213
ONEWEB-0515             
1 54133U 22138W   25164.56207455 -.00000114  00000+0 -31144-3 0  9997
2 54133  87.9259 347.8293 0002699  81.3621 278.7818 13.20772168130643
ONEWEB-0516             
1 54134U 22138X   25164.60178569  .00000069  00000+0  13986-3 0  9997
2 54134  87.9226  18.2684 0001879  90.2404 269.8944 13.19726482128215
ONEWEB-0517             
1 54135U 22138Y   25164.58124960 -.00000015  00000+0 -70045-4 0  9994
2 54135  87.9216  18.2318 0001512  79.1899 280.9403 13.19726318128219
ONEWEB-0518             
1 54136U 22138Z   25164.60020447  .00000056  00000+0  10674-3 0  9997
2 54136  87.9226  18.2640 0001778  91.5623 268.5713 13.19726155128211
ONEWEB-0519             
1 54137U 22138AA  25164.62547322  .00000051  00000+0  94440-4 0  9995
2 54137  87.9216  18.2157 0001564  82.6166 277.5144 13.19726124128225
